NORAD_CAT_ID,OBJECT_NAME,OBJECT_TYPE,EPOCH,MEAN_MOTION,ECCENTRICITY,INCLINATION,RA_OF_ASC_NODE,ARG_OF_PERICENTER,MEAN_ANOMALY,BSTAR,MEAN_MOTION_DOT,MEAN_MOTION_DDOT,TLE_LINE0,TLE_LINE1,TLE_LINE2,SEMIMAJOR_AXIS,PERIOD,APOGEE,PERIGEE,DECAYED
53861.0,STARLINK-4781,PAYLOAD,2022-12-23 22:00:01,15.40162329,0.0001351999999999,53.2167,145.9697,53.5998,234.716,-0.030975,-0.01151183,0.0,0 STARLINK-4781,1 53861U 22114AV  22357.91668981 -.01151183  00000-0 -30975-1 0  9997,2 53861  53.2167 145.9697 0001352  53.5998 234.7160 15.40162329  1300,6823.767,93.497,446.554,444.709,0.0
53861.0,STARLINK-4781,PAYLOAD,2022-12-24 14:00:01,15.38536364,0.0001386999999999,53.217,142.8328,49.682,335.0399,-0.032789,-0.01154498,0.0,0 STARLINK-4781,1 53861U 22114AV  22358.58334491 -.01154498  00000-0 -32789-1 0  9994,2 53861  53.2170 142.8328 0001387  49.6820 335.0399 15.38536364  1309,6828.574000000001,93.595,451.386,449.492,0.0
53861.0,STARLINK-4781,PAYLOAD,2022-12-24 16:00:00,15.38323208,0.0001573,53.2172,142.442,49.2032,77.3066,-0.032595,-0.01140969,0.0,0 STARLINK-4781,1 53861U 22114AV  22358.66667824 -.01140969  00000-0 -32595-1 0  9995,2 53861  53.2172 142.4420 0001573  49.2032  77.3066 15.38323208 15761,6829.204000000002,93.608,452.144,449.995,0.0
53861.0,STARLINK-4781,PAYLOAD,2022-12-24 22:00:00,15.37713735,0.0001465,53.2167,141.2689,46.7171,24.7759,-0.033242,-0.01140606,0.0,0 STARLINK-4781,1 53861U 22114AV  22358.91667824 -.01140606  00000-0 -33242-1 0  9991,2 53861  53.2167 141.2689 0001465  46.7171  24.7759 15.37713735  1302,6831.009,93.646,453.875,451.87300000000016,0.0
53861.0,STARLINK-4781,PAYLOAD,2022-12-25 14:00:01,15.36097633,0.0001499,53.2169,138.1437,60.728,101.3629,-0.035583,-0.01156845,0.0,0 STARLINK-4781,1 53861U 22114AV  22359.58334491 -.01156845  00000-0 -35583-1 0  9998,2 53861  53.2169 138.1437 0001499  60.7280 101.3629 15.36097633 15904,6835.799,93.744,458.689,456.639,0.0
53861.0,STARLINK-4781,PAYLOAD,2022-12-26 00:00:00,15.35071959,0.0001375,53.2168,136.1953,49.1915,257.5443,-0.036417,-0.01146381,0.0,0 STARLINK-4781,1 53861U 22114AV  22360.00001157 -.01146381  00000-0 -36417-1 0  9998,2 53861  53.2168 136.1953 0001375  49.1915 257.5443 15.35071959  1302,6838.844,93.807,461.649,459.768,0.0
53861.0,STARLINK-4781,PAYLOAD,2022-12-26 14:00:01,15.3365316,0.0001286999999999,53.2169,133.472,64.2373,226.4247,-0.038293,-0.01151416,0.0,0 STARLINK-4781,1 53861U 22114AV  22360.58334491 -.01151416  00000-0 -38293-1 0  9990,2 53861  53.2169 133.4720 0001287  64.2373 226.4247 15.33653160  1308,6843.061,93.893,465.807,464.045,0.0
53861.0,STARLINK-4781,PAYLOAD,2022-12-27 00:00:00,15.3262534,0.00015,53.217,131.5305,44.7616,26.8793,-0.03903,-0.01137279,0.0,0 STARLINK-4781,1 53861U 22114AV  22361.00001157 -.01137279  00000-0 -39030-1 0  9999,2 53861  53.2170 131.5305 0001500  44.7616  26.8793 15.32625340 16121,6846.12,93.956,469.012,466.958,0.0
53861.0,STARLINK-4781,PAYLOAD,2022-12-27 14:00:01,15.31210948,0.0001431,53.217,128.8176,50.86,359.5721,-0.041334,-0.01150614,0.0,0 STARLINK-4781,1 53861U 22114AV  22361.58334491 -.01150614  00000-0 -41334-1 0  9990,2 53861  53.2170 128.8176 0001431  50.8600 359.5721 15.31210948  1304,6850.335,94.043,473.181,471.22,0.0
53861.0,STARLINK-4781,PAYLOAD,2022-12-27 22:00:00,15.30392147,0.0001563,53.2167,127.2704,43.2513,45.1499,-0.042079,-0.01142527,0.0,0 STARLINK-4781,1 53861U 22114AV  22361.91667824 -.01142527  00000-0 -42079-1 0  9997,2 53861  53.2167 127.2704 0001563  43.2513  45.1499 15.30392147  1306,6852.778,94.094,475.715,473.572,0.0
53861.0,STARLINK-4781,PAYLOAD,2022-12-28 02:00:01,15.29983036,0.0001412,53.2175,126.4961,53.6531,233.3672,-0.042534,-0.0114041,0.0,0 STARLINK-4781,1 53861U 22114AV  22362.08334491 -.01140410  00000-0 -42534-1 0  9992,2 53861  53.2175 126.4961 0001412  53.6531 233.3672 15.29983036 16287,6854.0,94.119,476.833,474.897,0.0
53861.0,STARLINK-4781,PAYLOAD,2022-12-28 14:00:01,15.28775872,0.000156,53.217,124.1804,57.7077,103.6897,-0.044916,-0.01158314,0.0,0 STARLINK-4781,1 53861U 22114AV  22362.58334491 -.01158314  00000-0 -44916-1 0  9995,2 53861  53.2170 124.1804 0001560  57.7077 103.6897 15.28775872  1308,6857.608,94.193,480.542,478.403,0.0
53861.0,STARLINK-4781,PAYLOAD,2022-12-28 22:00:00,15.2796733,0.0001648,53.2166,122.6389,48.7816,147.6465,-0.046329,-0.01180563,0.0,0 STARLINK-4781,1 53861U 22114AV  22362.91667824 -.01180563  00000-0 -46329-1 0  9992,2 53861  53.2166 122.6389 0001648  48.7816 147.6465 15.27967330  1302,6860.026999999999,94.243,483.022,480.761,0.0
53861.0,STARLINK-4781,PAYLOAD,2022-12-29 00:00:00,15.27745953,0.0001463,53.2171,122.253,50.5537,244.4898,-0.0456279999999999,-0.01141516,0.0,0 STARLINK-4781,1 53861U 22114AV  22363.00001157 -.01141516  00000-0 -45628-1 0  9990,2 53861  53.2171 122.2530 0001463  50.5537 244.4898 15.27745953 16428,6860.689,94.257,483.5580000000001,481.55,0.0
53861.0,STARLINK-4781,PAYLOAD,2022-12-29 14:00:01,15.26328309,0.0001483,53.2171,119.5605,60.4668,203.1012,-0.047992,-0.01164469,0.0,0 STARLINK-4781,1 53861U 22114AV  22363.58334491 -.01164469  00000-0 -47992-1 0  9991,2 53861  53.2171 119.5605 0001483  60.4668 203.1012 15.26328309  1309,6864.937,94.344,487.82,485.784,0.0
53861.0,STARLINK-4781,PAYLOAD,2022-12-30 00:00:00,15.25302704,0.0001530999999999,53.2172,117.64,44.9783,348.56699999999995,-0.048993,-0.01153288,0.0,0 STARLINK-4781,1 53861U 22114AV  22364.00001157 -.01153288  00000-0 -48993-1 0  9998,2 53861  53.2172 117.6400 0001531  44.9783 348.5670 15.25302704 16581,6868.014,94.407,490.93,488.827,0.0
53861.0,STARLINK-4781,PAYLOAD,2022-12-30 14:00:01,15.2388167,0.0001474,53.2171,114.9577,52.4321,304.5058,-0.051319,-0.01157134,0.0,0 STARLINK-4781,1 53861U 22114AV  22364.58334491 -.01157134  00000-0 -51319-1 0  9991,2 53861  53.2171 114.9577 0001474  52.4321 304.5058 15.23881670  1301,6872.283,94.496,495.161,493.135,0.0
53861.0,STARLINK-4781,PAYLOAD,2022-12-31 00:00:00,15.22859311,0.0001739,53.2172,113.0443,44.9296,78.3167,-0.052521,-0.01149307,0.0,0 STARLINK-4781,1 53861U 22114AV  22365.00001157 -.01149307  00000-0 -52521-1 0  9998,2 53861  53.2172 113.0443 0001739  44.9296  78.3167 15.22859311 16731,6875.358,94.559,498.419,496.027,0.0
53861.0,STARLINK-4781,PAYLOAD,2022-12-31 14:00:01,15.21447362,0.0001668,53.2172,110.3722,46.8594,34.6416,-0.0556669999999999,-0.01166705,0.0,0 STARLINK-4781,1 53861U 22114AV  22365.58334491 -.01166705  00000-0 -55667-1 0  9996,2 53861  53.2172 110.3722 0001668  46.8594  34.6416 15.21447362  1301,6879.611,94.647,502.624,500.329,0.0
53861.0,STARLINK-4781,PAYLOAD,2022-12-31 22:00:00,15.2062803,0.0001823,53.2169,108.8471,40.781,66.9558,-0.0565679999999999,-0.01158052,0.0,0 STARLINK-4781,1 53861U 22114AV  22365.91667824 -.01158052  00000-0 -56568-1 0  9999,2 53861  53.2169 108.8471 0001823  40.7810  66.9558 15.20628030  1304,6882.081999999999,94.698,505.202,502.692,0.0
53861.0,STARLINK-4781,PAYLOAD,2023-01-01 14:00:01,15.190103099999998,0.0001818,53.2172,105.8038,46.3329,110.9315,-0.0600659999999999,-0.01171642,0.0,0 STARLINK-4781,1 53861U 22114AV  23001.58334491 -.01171642  00000-0 -60066-1 0  9999,2 53861  53.2172 105.8038 0001818  46.3329 110.9315 15.19010310  1300,6886.967,94.799,510.084,507.58,0.0
53861.0,STARLINK-4781,PAYLOAD,2023-01-02 00:00:00,15.17977616,0.0001618,53.2174,103.9042,46.73,229.5143,-0.0606639999999999,-0.01150082,0.0,0 STARLINK-4781,1 53861U 22114AV  23002.00001157 -.01150082  00000-0 -60664-1 0  9996,2 53861  53.2174 103.9042 0001618  46.7300 229.5143 15.17977616  1302,6890.090999999999,94.863,513.07,510.841,0.0
53861.0,STARLINK-4781,PAYLOAD,2023-01-02 04:00:00,15.17569378,0.0001733,53.2173,103.1449,41.5792,65.8269,-0.0612679999999999,-0.01148086,0.0,0 STARLINK-4781,1 53861U 22114AV  23002.16667824 -.01148086  00000-0 -61268-1 0  9994,2 53861  53.2173 103.1449 0001733  41.5792  65.8269 15.17569378 17062,6891.326,94.889,514.385,511.997,0.0
53861.0,STARLINK-4781,PAYLOAD,2023-01-02 14:00:01,15.16557807,0.0001757,53.2173,101.2523,49.3579,174.877,-0.0635169999999999,-0.01155427,0.0,0 STARLINK-4781,1 53861U 22114AV  23002.58334491 -.01155427  00000-0 -63517-1 0  9997,2 53861  53.2173 101.2523 0001757  49.3579 174.8770 15.16557807  1300,6894.39,94.952,517.467,515.044,0.0
53861.0,STARLINK-4781,PAYLOAD,2023-01-02 22:00:00,15.1574895,0.0001668,53.2171,99.7384,42.2672,202.3322,-0.065484,-0.01163226,0.0,0 STARLINK-4781,1 53861U 22114AV  23002.91667824 -.01163226  00000-0 -65484-1 0  9994,2 53861  53.2171  99.7384 0001668  42.2672 202.3322 15.15748950  1301,6896.843000000003,95.003,519.8580000000002,517.557,0.0
53861.0,STARLINK-4781,PAYLOAD,2023-01-03 00:00:00,15.15535598,0.000157,53.2174,99.3598,41.1678,298.375,-0.065006,-0.0114889,0.0,0 STARLINK-4781,1 53861U 22114AV  23003.00001157 -.01148890  00000-0 -65006-1 0  9996,2 53861  53.2174  99.3598 0001570  41.1678 298.3750 15.15535598 17199,6897.49,95.016,520.438,518.2719999999998,0.0
53861.0,STARLINK-4781,PAYLOAD,2023-01-03 08:00:01,15.14722121,0.0006364,53.2175,97.8488,270.9292,87.7577,-0.066562,-0.01150598,0.0,0 STARLINK-4781,1 53861U 22114AV  23003.33334491 -.01150598  00000-0 -66562-1 0  9998,2 53861  53.2175  97.8488 0006364 270.9292  87.7577 15.14722121 17243,6899.959,95.067,526.215,517.433,0.0
53861.0,STARLINK-4781,PAYLOAD,2023-01-03 14:00:01,15.14133134,0.0001337,53.2176,96.7181,48.9563,233.4351,-0.069566,-0.01178756,0.0,0 STARLINK-4781,1 53861U 22114AV  23003.58334491 -.01178756  00000-0 -69566-1 0  9998,2 53861  53.2176  96.7181 0001337  48.9563 233.4351 15.14133134  1301,6901.749,95.104,524.536,522.691,0.0
53861.0,STARLINK-4781,PAYLOAD,2023-01-03 16:00:01,15.13903912,0.0001429,53.2175,96.3413,46.1494,330.7667,-0.0676539999999999,-0.01142016,0.0,0 STARLINK-4781,1 53861U 22114AV  23003.66668981 -.01142016  00000-0 -67654-1 0  9997,2 53861  53.2175  96.3413 0001429  46.1494 330.7667 15.13903912 17293,6902.445,95.118,525.297,523.3240000000002,0.0
